start=new Date('2022-08-15T00:00:00.000Z').valueOf();
sats=[{"ELEMENT_SET_NO":"999","SEMIMAJOR_AXIS":"6917.833","CENTER_NAME":"EARTH","INCLINATION":"53.2154","NORAD_CAT_ID":"52469","MEAN_MOTION_DDOT":"0.0000000000000","BSTAR":"-0.00145750000000","MEAN_ANOMALY":"310.0285","EPOCH":"2022-08-14T22:00:00.999936","REV_AT_EPOCH":"130","APOAPSIS":"541.068","GP_ID":"210235702","COUNTRY_CODE":"US","ECCENTRICITY":"0.00019810","PERIOD":"95.437","OBJECT_ID":"2022-049U","REF_FRAME":"TEME","TLE_LINE1":"1 52469U 22049R   22226.91667824 -.00023420  00000-0 -14575-2 0  9997","DECAY_DATE":null,"MEAN_MOTION":"15.08855664","EPHEMERIS_TYPE":"0","OBJECT_TYPE":"PAYLOAD","SITE":"AFETR","PERIAPSIS":"538.327","TLE_LINE2":"2 52469  53.2154 147.4959 0001981  63.6486 310.0285 15.08855664  1300","MEAN_ELEMENT_THEORY":"SGP4","MEAN_MOTION_DOT":"-0.00023420","OBJECT_NAME":"STARLINK-3828","TIME_SYSTEM":"UTC","RCS_SIZE":"LARGE","LAUNCH_DATE":"2022-05-06","CLASSIFICATION_TYPE":"U","FILE":"3536615","RA_OF_ASC_NODE":"147.4959","ARG_OF_PERICENTER":"63.6486"},{"SITE":"AFETR","OBJECT_TYPE":"PAYLOAD","DECAY_DATE":null,"MEAN_MOTION":"15.08847548","EPHEMERIS_TYPE":"0","TIME_SYSTEM":"UTC","LAUNCH_DATE":"2022-05-06","RCS_SIZE":"LARGE","CLASSIFICATION_TYPE":"U","FILE":"3536615","ARG_OF_PERICENTER":"65.4499","RA_OF_ASC_NODE":"147.4912","PERIAPSIS":"538.373","MEAN_ELEMENT_THEORY":"SGP4","TLE_LINE2":"2 52470  53.2164 147.4912 0001950  65.4499  28.3479 15.08847548  1308","OBJECT_NAME":"STARLINK-3859","MEAN_MOTION_DOT":"-0.00022915","MEAN_MOTION_DDOT":"0.0000000000000","BSTAR":"-0.00142590000000","ELEMENT_SET_NO":"999","SEMIMAJOR_AXIS":"6917.857","CENTER_NAME":"EARTH","INCLINATION":"53.2164","NORAD_CAT_ID":"52470","PERIOD":"95.437","OBJECT_ID":"2022-049V","REF_FRAME":"TEME","TLE_LINE1":"1 52470U 22049V   22226.91667824 -.00022915  00000-0 -14259-2 0  9996","MEAN_ANOMALY":"28.3479","EPOCH":"2022-08-14T22:00:00.999936","APOAPSIS":"541.071","REV_AT_EPOCH":"130","GP_ID":"210235313","COUNTRY_CODE":"US","ECCENTRICITY":"0.00019500"},{"TLE_LINE1":"1 52471U 22049W   22226.91667824 -.00065825  00000-0 -41514-2 0  9998","PERIOD":"95.435","OBJECT_ID":"2022-049W","REF_FRAME":"TEME","GP_ID":"210235441","COUNTRY_CODE":"US","ECCENTRICITY":"0.00022670","MEAN_ANOMALY":"328.3055","EPOCH":"2022-08-14T22:00:00.999936","REV_AT_EPOCH":"130","APOAPSIS":"541.199","BSTAR":"-0.00415140000000","MEAN_MOTION_DDOT":"0.0000000000000","NORAD_CAT_ID":"52471","ELEMENT_SET_NO":"999","SEMIMAJOR_AXIS":"6917.766","INCLINATION":"53.2149","CENTER_NAME":"EARTH","LAUNCH_DATE":"2022-05-06","RCS_SIZE":"LARGE","CLASSIFICATION_TYPE":"U","RA_OF_ASC_NODE":"147.4965","FILE":"3536615","ARG_OF_PERICENTER":"65.5713","TIME_SYSTEM":"UTC","PERIAPSIS":"538.062","TLE_LINE2":"2 52471  53.2149 147.4965 0002267  65.5713 328.3055 15.08877562  1304","MEAN_ELEMENT_THEORY":"SGP4","MEAN_MOTION_DOT":"-0.00065825","OBJECT_NAME":"STARLINK-3862","OBJECT_TYPE":"PAYLOAD","SITE":"AFETR","MEAN_MOTION":"15.08877562","DECAY_DATE":null,"EPHEMERIS_TYPE":"0"},{"ECCENTRICITY":"0.00020110","COUNTRY_CODE":"US","GP_ID":"210235185","APOAPSIS":"541.128","REV_AT_EPOCH":"130","EPOCH":"2022-08-14T22:00:00.999936","MEAN_ANOMALY":"50.7041","TLE_LINE1":"1 52472U 22049X   22226.91667824 -.00022698  00000-0 -14124-2 0  9997","REF_FRAME":"TEME","OBJECT_ID":"2022-049X","PERIOD":"95.437","NORAD_CAT_ID":"52472","INCLINATION":"53.2169","CENTER_NAME":"EARTH","SEMIMAJOR_AXIS":"6917.872","ELEMENT_SET_NO":"999","BSTAR":"-0.00141240000000","MEAN_MOTION_DDOT":"0.0000000000000","OBJECT_NAME":"STARLINK-3881","MEAN_MOTION_DOT":"-0.00022698","TLE_LINE2":"2 52472  53.2169 147.4858 0002011  63.0958  50.7041 15.08842906  1304","MEAN_ELEMENT_THEORY":"SGP4","PERIAPSIS":"538.345","RA_OF_ASC_NODE":"147.4858","FILE":"3536615","ARG_OF_PERICENTER":"63.0958","CLASSIFICATION_TYPE":"U","RCS_SIZE":"LARGE","LAUNCH_DATE":"2022-05-06","TIME_SYSTEM":"UTC","EPHEMERIS_TYPE":"0","MEAN_MOTION":"15.08842906","DECAY_DATE":null,"SITE":"AFETR","OBJECT_TYPE":"PAYLOAD"},{"REF_FRAME":"TEME","PERIOD":"95.437","OBJECT_ID":"2022-049Y","TLE_LINE1":"1 52473U 22049Y   22227.00001157 -.00023732  00000-0 -14774-2 0  9991","REV_AT_EPOCH":"1574","APOAPSIS":"541.276","MEAN_ANOMALY":"104.6518","EPOCH":"2022-08-15T00:00:00.999648","COUNTRY_CODE":"US","ECCENTRICITY":"0.00022580","GP_ID":"210210103","MEAN_MOTION_DDOT":"0.0000000000000","BSTAR":"-0.00147740000000","CENTER_NAME":"EARTH","INCLINATION":"53.2159","ELEMENT_SET_NO":"999","SEMIMAJOR_AXIS":"6917.848","NORAD_CAT_ID":"52473","TIME_SYSTEM":"UTC","CLASSIFICATION_TYPE":"U","ARG_OF_PERICENTER":"62.1369","FILE":"3536602","RA_OF_ASC_NODE":"147.1250","RCS_SIZE":"LARGE","LAUNCH_DATE":"2022-05-06","TLE_LINE2":"2 52473  53.2159 147.1250 0002258  62.1369 104.6518 15.08850435 15743","MEAN_ELEMENT_THEORY":"SGP4","OBJECT_NAME":"STARLINK-3879","MEAN_MOTION_DOT":"-0.00023732","PERIAPSIS":"538.151","OBJECT_TYPE":"PAYLOAD","SITE":"AFETR","MEAN_MOTION":"15.08850435","DECAY_DATE":null,"EPHEMERIS_TYPE":"0"},{"EPHEMERIS_TYPE":"0","MEAN_MOTION":"15.08869716","DECAY_DATE":null,"SITE":"AFETR","OBJECT_TYPE":"PAYLOAD","MEAN_MOTION_DOT":"-0.00058769","OBJECT_NAME":"STARLINK-3855","MEAN_ELEMENT_THEORY":"SGP4","TLE_LINE2":"2 52474  53.2130 137.1228 0001779  56.4637  45.2908 15.08869716 15888","PERIAPSIS":"538.424","TIME_SYSTEM":"UTC","FILE":"3536599","RA_OF_ASC_NODE":"137.1228","ARG_OF_PERICENTER":"56.4637","CLASSIFICATION_TYPE":"U","RCS_SIZE":"LARGE","LAUNCH_DATE":"2022-05-06","INCLINATION":"53.2130","CENTER_NAME":"EARTH","SEMIMAJOR_AXIS":"6917.790","ELEMENT_SET_NO":"999","NORAD_CAT_ID":"52474","MEAN_MOTION_DDOT":"0.0000000000000","BSTAR":"-0.00370170000000","APOAPSIS":"540.885","REV_AT_EPOCH":"1588","EPOCH":"2022-08-15T00:00:00.999648","MEAN_ANOMALY":"45.2908","ECCENTRICITY":"0.00017790","COUNTRY_CODE":"US","GP_ID":"210210078","REF_FRAME":"TEME","OBJECT_ID":"2022-049Z","PERIOD":"95.436","TLE_LINE1":"1 52474U 22049Z   22227.00001157 -.00058769  00000-0 -37017-2 0  9995"},{"BSTAR":"-0.00142300000000","MEAN_MOTION_DDOT":"0.0000000000000","NORAD_CAT_ID":"52475","CENTER_NAME":"EARTH","INCLINATION":"53.2168","SEMIMAJOR_AXIS":"6917.872","ELEMENT_SET_NO":"999","TLE_LINE1":"1 52475U 22049AA  22226.91667824 -.00022866  00000-0 -14230-2 0  9995","REF_FRAME":"TEME","OBJECT_ID":"2022-049AA","PERIOD":"95.437","ECCENTRICITY":"0.00021490","COUNTRY_CODE":"US","GP_ID":"210235049","APOAPSIS":"541.224","REV_AT_EPOCH":"130","EPOCH":"2022-08-14T22:00:00.999936","MEAN_ANOMALY":"43.4817","SITE":"AFETR","OBJECT_TYPE":"PAYLOAD","EPHEMERIS_TYPE":"0","MEAN_MOTION":"15.08842758","DECAY_DATE":null,"ARG_OF_PERICENTER":"65.0983","FILE":"3536615","RA_OF_ASC_NODE":"147.4855","CLASSIFICATION_TYPE":"U","LAUNCH_DATE":"2022-05-06","RCS_SIZE":"LARGE","TIME_SYSTEM":"UTC","MEAN_MOTION_DOT":"-0.00022866","OBJECT_NAME":"STARLINK-3882","MEAN_ELEMENT_THEORY":"SGP4","TLE_LINE2":"2 52475  53.2168 147.4855 0002149  65.0983  43.4817 15.08842758  1300","PERIAPSIS":"538.250"},{"MEAN_ANOMALY":"65.8614","EPOCH":"2022-08-15T00:00:00.999648","REV_AT_EPOCH":"1588","APOAPSIS":"541.053","GP_ID":"210210230","COUNTRY_CODE":"US","ECCENTRICITY":"0.00018840","PERIOD":"95.438","OBJECT_ID":"2022-049AB","REF_FRAME":"TEME","TLE_LINE1":"1 52476U 22049AB  22227.00001157 -.00015569  00000-0 -96225-3 0  9995","ELEMENT_SET_NO":"999","SEMIMAJOR_AXIS":"6917.884","CENTER_NAME":"EARTH","INCLINATION":"53.2129","NORAD_CAT_ID":"52476","MEAN_MOTION_DDOT":"0.0000000000000","BSTAR":"-0.00096225000000","PERIAPSIS":"538.446","MEAN_ELEMENT_THEORY":"SGP4","TLE_LINE2":"2 52476  53.2129 137.1222 0001884  55.9313  65.8614 15.08838699 15882","MEAN_MOTION_DOT":"-0.00015569","OBJECT_NAME":"STARLINK-3835","TIME_SYSTEM":"UTC","RCS_SIZE":"LARGE","LAUNCH_DATE":"2022-05-06","CLASSIFICATION_TYPE":"U","RA_OF_ASC_NODE":"137.1222","FILE":"3536602","ARG_OF_PERICENTER":"55.9313","MEAN_MOTION":"15.08838699","DECAY_DATE":null,"EPHEMERIS_TYPE":"0","OBJECT_TYPE":"PAYLOAD","SITE":"AFETR"},{"REF_FRAME":"TEME","OBJECT_ID":"2022-049AC","PERIOD":"95.437","TLE_LINE1":"1 52477U 22049AC  22226.91667824 -.00022739  00000-0 -14147-2 0  9993","REV_AT_EPOCH":"130","APOAPSIS":"540.828","EPOCH":"2022-08-14T22:00:00.999936","MEAN_ANOMALY":"299.5848","ECCENTRICITY":"0.00016120","COUNTRY_CODE":"US","GP_ID":"210235703","MEAN_MOTION_DDOT":"0.0000000000000","BSTAR":"-0.00141470000000","CENTER_NAME":"EARTH","INCLINATION":"53.2137","SEMIMAJOR_AXIS":"6917.848","ELEMENT_SET_NO":"999","NORAD_CAT_ID":"52477","TIME_SYSTEM":"UTC","FILE":"3536615","RA_OF_ASC_NODE":"137.4991","ARG_OF_PERICENTER":"49.2664","CLASSIFICATION_TYPE":"U","LAUNCH_DATE":"2022-05-06","RCS_SIZE":"LARGE","MEAN_MOTION_DOT":"-0.00022739","OBJECT_NAME":"STARLINK-3860","TLE_LINE2":"2 52477  53.2137 137.4991 0001612  49.2664 299.5848 15.08850751  1302","MEAN_ELEMENT_THEORY":"SGP4","PERIAPSIS":"538.597","OBJECT_TYPE":"PAYLOAD","SITE":"AFETR","EPHEMERIS_TYPE":"0","MEAN_MOTION":"15.08850751","DECAY_DATE":null},{"CLASSIFICATION_TYPE":"U","FILE":"3536615","RA_OF_ASC_NODE":"147.4839","ARG_OF_PERICENTER":"68.4824","LAUNCH_DATE":"2022-05-06","RCS_SIZE":"LARGE","TIME_SYSTEM":"UTC","TLE_LINE2":"2 52478  53.2177 147.4839 0002275  68.4824  85.4359 15.08855732  1309","MEAN_ELEMENT_THEORY":"SGP4","OBJECT_NAME":"STARLINK-3825","MEAN_MOTION_DOT":"-0.00038734","PERIAPSIS":"538.123","OBJECT_TYPE":"PAYLOAD","SITE":"AFETR","MEAN_MOTION":"15.08855732","DECAY_DATE":null,"EPHEMERIS_TYPE":"0","TLE_LINE1":"1 52478U 22049AD  22226.91667824 -.00038734  00000-0 -24276-2 0  9990","REF_FRAME":"TEME","PERIOD":"95.437","OBJECT_ID":"2022-049AD","COUNTRY_CODE":"US","ECCENTRICITY":"0.00022750","GP_ID":"210235314","APOAPSIS":"541.271","REV_AT_EPOCH":"130","MEAN_ANOMALY":"85.4359","EPOCH":"2022-08-14T22:00:00.999936","BSTAR":"-0.00242760000000","MEAN_MOTION_DDOT":"0.0000000000000","NORAD_CAT_ID":"52478","CENTER_NAME":"EARTH","INCLINATION":"53.2177","ELEMENT_SET_NO":"999","SEMIMAJOR_AXIS":"6917.832"}];
